LEMUR-2-MARACHE-FRAN    
1 63262U 25052BE  26068.70885648  .00008220  00000+0  68460-3 0  9999
2 63262  97.6985 323.5335 0002324  45.7689 314.3725 14.98898773 53859
STARLINK-36209          
1 67022U 25293V   26068.17770489 -.00008704  00000+0 -72280-3 0  9995
2 67022  70.0010  95.6454 0002638 266.3087  93.7770 14.98321732 14818
